{"type": "FeatureCollection", "name": "Bairros de Oriximiná - Revisão do Plano Diretor 2017 (Mapa 01/19)", "features": [{"type": "Feature", "properties": {"nome": "Loteamento sem denominação 1", "tipo": "Loteamento", "cor": "#e6e600", "rotulo_lat": -1.742271, "rotulo_lon": -55.87135}, "geometry": {"type": "Polygon", "coordinates": [[[-55.869823, -1.742522], [-55.871061, -1.740747], [-55.873812, -1.742758], [-55.873738, -1.74289], [-55.872739, -1.74448], [-55.869823, -1.742522]]]}}, {"type": "Feature", "properties": {"nome": "Ocupação sem denominação", "tipo": "Ocupação", "cor": "#728944", "rotulo_lat": -1.74486, "rotulo_lon": -55.850704}, "geometry": {"type": "Polygon", "coordinates": [[[-55.850362, -1.747139], [-55.848816, -1.745359], [-55.850037, -1.741465], [-55.850579, -1.741597], [-55.85059, -1.742045], [-55.850682, -1.742568], [-55.85087, -1.742803], [-55.851703, -1.742045], [-55.851994, -1.743475], [-55.852051, -1.743722], [-55.852285, -1.74436], [-55.852645, -1.74494], [-55.853581, -1.745991], [-55.853735, -1.745922], [-55.853769, -1.746071], [-55.853701, -1.746054], [-55.85208, -1.747553], [-55.851098, -1.746468], [-55.850362, -1.747139]]]}}, {"type": "Feature", "properties": {"nome": "Loteamento sem denominação 2", "tipo": "Loteamento", "cor": "#e6e600", "rotulo_lat": -1.750569, "rotulo_lon": -55.849377}, "geometry": {"type": "Polygon", "coordinates": [[[-55.848713, -1.748558], [-55.851663, -1.751728], [-55.850887, -1.752354], [-55.850687, -1.751964], [-55.850585, -1.751912], [-55.850493, -1.751952], [-55.850351, -1.752159], [-55.850197, -1.752572], [-55.848798, -1.751251], [-55.847474, -1.749741], [-55.8478, -1.74942], [-55.848713, -1.748558]]]}}, {"type": "Feature", "properties": {"nome": "Santa Terezinha", "tipo": "Bairro", "cor": "#e8fcbb", "rotulo_lat": -1.775315, "rotulo_lon": -55.862533}, "geometry": {"type": "Polygon", "coordinates": [[[-55.859499, -1.768837], [-55.861045, -1.770187], [-55.86322, -1.772036], [-55.864338, -1.773006], [-55.8656, -1.774126], [-55.866113, -1.774511], [-55.86629, -1.774655], [-55.866245, -1.774758], [-55.866108, -1.774919], [-55.866033, -1.774988], [-55.865993, -1.775361], [-55.865822, -1.775625], [-55.865463, -1.776136], [-55.865052, -1.776969], [-55.864726, -1.777578], [-55.86455, -1.778083], [-55.864293, -1.778669], [-55.863882, -1.779358], [-55.863482, -1.779863], [-55.863334, -1.78007], [-55.862974, -1.779737], [-55.862153, -1.77895], [-55.86056, -1.777474], [-55.859276, -1.77632], [-55.858449, -1.775556], [-55.858432, -1.775545], [-55.858403, -1.775545], [-55.857907, -1.775705], [-55.857792, -1.775487], [-55.857644, -1.775246], [-55.857165, -1.774563], [-55.858066, -1.773558], [-55.856263, -1.771938], [-55.85717, -1.771077], [-55.8583, -1.76998], [-55.859499, -1.768837]]]}}, {"type": "Feature", "properties": {"nome": "Centro", "tipo": "Bairro", "cor": "#cdaa66", "rotulo_lat": -1.768658, "rotulo_lon": -55.865253}, "geometry": {"type": "Polygon", "coordinates": [[[-55.86532, -1.763278], [-55.866273, -1.7643], [-55.867306, -1.765379], [-55.868407, -1.766396], [-55.869286, -1.767229], [-55.870097, -1.768039], [-55.870416, -1.768303], [-55.870405, -1.7684], [-55.870445, -1.768544], [-55.870422, -1.76867], [-55.870302, -1.768762], [-55.870108, -1.768693], [-55.87, -1.768768], [-55.86988, -1.768923], [-55.869737, -1.769021], [-55.869714, -1.76913], [-55.869589, -1.769348], [-55.869475, -1.769491], [-55.869355, -1.769692], [-55.868328, -1.770939], [-55.868373, -1.771042], [-55.868385, -1.771174], [-55.868305, -1.771404], [-55.868128, -1.771519], [-55.867985, -1.771525], [-55.867968, -1.771611], [-55.868168, -1.771817], [-55.868065, -1.771984], [-55.867774, -1.772196], [-55.867569, -1.772369], [-55.867329, -1.772673], [-55.867101, -1.773081], [-55.867015, -1.773144], [-55.866964, -1.773437], [-55.866901, -1.773609], [-55.866775, -1.773764], [-55.866707, -1.773822], [-55.866638, -1.77385], [-55.866587, -1.773937], [-55.866576, -1.773994], [-55.86653, -1.774046], [-55.866444, -1.774178], [-55.866319, -1.774534], [-55.865651, -1.774051], [-55.864395, -1.772937], [-55.863283, -1.771972], [-55.861034, -1.77006], [-55.859567, -1.768774], [-55.860754, -1.767642], [-55.862381, -1.766069], [-55.863848, -1.764685], [-55.86532, -1.763278]]]}}, {"type": "Feature", "properties": {"nome": "Nossa Senhora de Fátima", "tipo": "Bairro", "cor": "#ffff73", "rotulo_lat": -1.764069, "rotulo_lon": -55.868824}, "geometry": {"type": "Polygon", "coordinates": [[[-55.865765, -1.758815], [-55.8677, -1.76086], [-55.867768, -1.760917], [-55.868636, -1.761549], [-55.86988, -1.762439], [-55.871375, -1.763794], [-55.871386, -1.763829], [-55.871375, -1.763869], [-55.870896, -1.764415], [-55.870924, -1.764495], [-55.872026, -1.764811], [-55.872351, -1.764891], [-55.872225, -1.764989], [-55.872094, -1.765362], [-55.871832, -1.766], [-55.87182, -1.766051], [-55.87182, -1.766097], [-55.871809, -1.766132], [-55.871814, -1.766224], [-55.87174, -1.766281], [-55.871643, -1.766442], [-55.871603, -1.766522], [-55.871558, -1.766654], [-55.871535, -1.766775], [-55.871426, -1.766873], [-55.871255, -1.766936], [-55.871238, -1.767051], [-55.871238, -1.767137], [-55.871261, -1.767223], [-55.871255, -1.767349], [-55.871215, -1.767413], [-55.871141, -1.767436], [-55.871073, -1.767418], [-55.871027, -1.767458], [-55.871021, -1.767516], [-55.87105, -1.767642], [-55.871004, -1.767746], [-55.870833, -1.767918], [-55.870839, -1.767993], [-55.870827, -1.768107], [-55.870719, -1.768188], [-55.870593, -1.768136], [-55.870599, -1.768079], [-55.870422, -1.768021], [-55.870348, -1.768039], [-55.870382, -1.768165], [-55.870148, -1.76797], [-55.869343, -1.76716], [-55.869258, -1.767102], [-55.868447, -1.766333], [-55.86839, -1.766287], [-55.867346, -1.76531], [-55.866319, -1.764237], [-55.866267, -1.764173], [-55.865366, -1.763203], [-55.864732, -1.762496], [-55.864344, -1.762043], [-55.863357, -1.761026], [-55.864384, -1.760073], [-55.865765, -1.758815]]]}}, {"type": "Feature", "properties": {"nome": "Santa Luzia", "tipo": "Bairro", "cor": "#73b2ff", "rotulo_lat": -1.758772, "rotulo_lon": -55.869958}, "geometry": {"type": "Polygon", "coordinates": [[[-55.870998, -1.76442], [-55.871444, -1.763921], [-55.871461, -1.763875], [-55.871461, -1.763794], [-55.871444, -1.763743], [-55.871147, -1.763456], [-55.870011, -1.762427], [-55.868767, -1.761537], [-55.868698, -1.76148], [-55.867814, -1.760854], [-55.867768, -1.760796], [-55.865845, -1.758769], [-55.866941, -1.757695], [-55.868978, -1.755507], [-55.869903, -1.754479], [-55.87101, -1.75561], [-55.871078, -1.755651], [-55.871877, -1.756518], [-55.871934, -1.756598], [-55.873361, -1.75746], [-55.873424, -1.757483], [-55.873886, -1.757712], [-55.873863, -1.75773], [-55.8738, -1.757747], [-55.873761, -1.757776], [-55.873749, -1.757839], [-55.873761, -1.757919], [-55.873875, -1.758109], [-55.873875, -1.758155], [-55.873846, -1.758229], [-55.873829, -1.758315], [-55.873823, -1.758402], [-55.873806, -1.75847], [-55.873829, -1.758511], [-55.873949, -1.758562], [-55.87404, -1.758648], [-55.87408, -1.758769], [-55.87408, -1.75897], [-55.873972, -1.759206], [-55.873875, -1.759303], [-55.873858, -1.759349], [-55.873835, -1.759521], [-55.873778, -1.759539], [-55.873715, -1.759544], [-55.873686, -1.759527], [-55.873664, -1.759418], [-55.873584, -1.759338], [-55.873572, -1.759292], [-55.873521, -1.759177], [-55.873464, -1.7592], [-55.873315, -1.759223], [-55.873047, -1.759148], [-55.872973, -1.75916], [-55.872933, -1.759223], [-55.872887, -1.759303], [-55.872865, -1.759407], [-55.87283, -1.759493], [-55.872859, -1.759774], [-55.872842, -1.759866], [-55.872762, -1.759912], [-55.872728, -1.759993], [-55.872733, -1.760102], [-55.872779, -1.760176], [-55.872785, -1.760435], [-55.872762, -1.760653], [-55.87279, -1.76071], [-55.872853, -1.760791], [-55.872876, -1.760837], [-55.872882, -1.760894], [-55.87287, -1.760975], [-55.87291, -1.761009], [-55.873059, -1.761072], [-55.87299, -1.761233], [-55.873002, -1.761331], [-55.872984, -1.761371], [-55.872933, -1.761394], [-55.872882, -1.761394], [-55.872636, -1.761336], [-55.872573, -1.761336], [-55.872568, -1.761371], [-55.872596, -1.761388], [-55.872882, -1.761474], [-55.872916, -1.761514], [-55.872927, -1.761555], [-55.872893, -1.761606], [-55.872785, -1.761704], [-55.872671, -1.761778], [-55.872613, -1.761847], [-55.872585, -1.761985], [-55.872625, -1.762083], [-55.872665, -1.76214], [-55.872653, -1.762226], [-55.872619, -1.76237], [-55.872642, -1.762623], [-55.872642, -1.76287], [-55.872602, -1.76291], [-55.872619, -1.763168], [-55.872608, -1.763622], [-55.872659, -1.763674], [-55.872705, -1.7638], [-55.872699, -1.763835], [-55.872556, -1.764133], [-55.872568, -1.764317], [-55.872534, -1.764351], [-55.872494, -1.764627], [-55.872425, -1.764834], [-55.870998, -1.76442]]]}}, {"type": "Feature", "properties": {"nome": "Cidade Nova", "tipo": "Bairro", "cor": "#f6b3fc", "rotulo_lat": -1.772756, "rotulo_lon": -55.852749}, "geometry": {"type": "Polygon", "coordinates": [[[-55.852274, -1.768102], [-55.85289, -1.768785], [-55.8539, -1.769939], [-55.855898, -1.772162], [-55.855966, -1.772219], [-55.8562, -1.772001], [-55.856605, -1.772357], [-55.856657, -1.772392], [-55.856908, -1.772604], [-55.857935, -1.773563], [-55.857815, -1.773695], [-55.857673, -1.773753], [-55.857558, -1.773782], [-55.857325, -1.77381], [-55.85676, -1.773839], [-55.856423, -1.773896], [-55.855721, -1.77412], [-55.855544, -1.774195], [-55.855253, -1.774293], [-55.855025, -1.774419], [-55.85454, -1.774827], [-55.853872, -1.775441], [-55.85341, -1.775832], [-55.851994, -1.777107], [-55.851133, -1.777848], [-55.84982, -1.779008], [-55.848285, -1.778072], [-55.8472, -1.777377], [-55.847252, -1.777262], [-55.847332, -1.777141], [-55.847486, -1.776986], [-55.847594, -1.776935], [-55.84772, -1.776963], [-55.847851, -1.776935], [-55.848005, -1.776768], [-55.848251, -1.776642], [-55.848416, -1.776372], [-55.848616, -1.776268], [-55.848724, -1.77605], [-55.848564, -1.77609], [-55.848462, -1.776085], [-55.84841, -1.776033], [-55.848399, -1.775861], [-55.848353, -1.775717], [-55.848388, -1.775642], [-55.848616, -1.775418], [-55.848821, -1.775148], [-55.848724, -1.774609], [-55.849181, -1.773494], [-55.849107, -1.77257], [-55.84974, -1.771944], [-55.850716, -1.770922], [-55.850642, -1.770858], [-55.850973, -1.77052], [-55.850408, -1.769934], [-55.852274, -1.768102]]]}}, {"type": "Feature", "properties": {"nome": "Nossa Senhora do Perpétuo Socorro", "tipo": "Bairro", "cor": "#caeafc", "rotulo_lat": -1.766673, "rotulo_lon": -55.857646}, "geometry": {"type": "Polygon", "coordinates": [[[-55.86225, -1.766069], [-55.860754, -1.767516], [-55.858238, -1.769916], [-55.85717, -1.77095], [-55.855966, -1.772099], [-55.854026, -1.769945], [-55.852896, -1.768659], [-55.85236, -1.768061], [-55.853364, -1.767085], [-55.853432, -1.767034], [-55.853455, -1.766988], [-55.854477, -1.765959], [-55.85563, -1.764782], [-55.856988, -1.763536], [-55.858551, -1.762123], [-55.861291, -1.765081], [-55.86225, -1.766069]]]}}, {"type": "Feature", "properties": {"nome": "Santíssimo Sacramento", "tipo": "Bairro", "cor": "#c9f2d0", "rotulo_lat": -1.763143, "rotulo_lon": -55.862378}, "geometry": {"type": "Polygon", "coordinates": [[[-55.865257, -1.763214], [-55.863716, -1.764685], [-55.862318, -1.766005], [-55.861354, -1.765018], [-55.861297, -1.764949], [-55.860264, -1.763852], [-55.858614, -1.76206], [-55.859134, -1.761526], [-55.859145, -1.761503], [-55.859145, -1.761474], [-55.858763, -1.761153], [-55.858683, -1.761101], [-55.85741, -1.760107], [-55.85628, -1.759188], [-55.855162, -1.758218], [-55.857901, -1.755404], [-55.858911, -1.756552], [-55.859973, -1.757689], [-55.86217, -1.759981], [-55.863266, -1.761141], [-55.865257, -1.763214]]]}}, {"type": "Feature", "properties": {"nome": "São Pedro", "tipo": "Bairro", "cor": "#fcb3da", "rotulo_lat": -1.75443, "rotulo_lon": -55.866854}, "geometry": {"type": "Polygon", "coordinates": [[[-55.86298, -1.747174], [-55.863574, -1.747857], [-55.864236, -1.748535], [-55.865035, -1.749529], [-55.865548, -1.750074], [-55.86613, -1.750671], [-55.866701, -1.751274], [-55.868265, -1.752745], [-55.869069, -1.753537], [-55.86984, -1.754416], [-55.868921, -1.755438], [-55.866878, -1.757632], [-55.865891, -1.756621], [-55.864698, -1.755317], [-55.863597, -1.754163], [-55.863003, -1.753509], [-55.861999, -1.752423], [-55.861542, -1.751958], [-55.860429, -1.750781], [-55.859916, -1.750212], [-55.860903, -1.749241], [-55.861844, -1.748271], [-55.86298, -1.747174]]]}}, {"type": "Feature", "properties": {"nome": "Penta", "tipo": "Ocupação", "cor": "#c2fcfb", "rotulo_lat": -1.747168, "rotulo_lon": -55.865922}, "geometry": {"type": "Polygon", "coordinates": [[[-55.869075, -1.753411], [-55.868385, -1.752739], [-55.866764, -1.751217], [-55.866199, -1.750608], [-55.865611, -1.750011], [-55.865103, -1.749471], [-55.864241, -1.748403], [-55.863579, -1.747725], [-55.86306, -1.747088], [-55.864156, -1.745974], [-55.865097, -1.745095], [-55.866028, -1.744113], [-55.866644, -1.744756], [-55.867437, -1.745416], [-55.86786, -1.74591], [-55.867922, -1.745974], [-55.868447, -1.746433], [-55.868932, -1.746829], [-55.867922, -1.747892], [-55.867854, -1.747949], [-55.867917, -1.748018], [-55.868407, -1.748541], [-55.868932, -1.748007], [-55.869492, -1.748518], [-55.870422, -1.74931], [-55.870993, -1.749753], [-55.871917, -1.750511], [-55.871175, -1.751366], [-55.870102, -1.752423], [-55.869075, -1.753411]]]}}, {"type": "Feature", "properties": {"nome": "Bela Vista", "tipo": "Ocupação", "cor": "#fcd3b3", "rotulo_lat": -1.746947, "rotulo_lon": -55.871752}, "geometry": {"type": "Polygon", "coordinates": [[[-55.869817, -1.742522], [-55.872739, -1.74448], [-55.874308, -1.745635], [-55.874337, -1.745772], [-55.875632, -1.746732], [-55.874936, -1.747461], [-55.874525, -1.747852], [-55.873977, -1.748432], [-55.87198, -1.750442], [-55.870981, -1.749626], [-55.870553, -1.749304], [-55.869555, -1.748454], [-55.868995, -1.747943], [-55.868898, -1.747909], [-55.868407, -1.748414], [-55.867985, -1.747955], [-55.869018, -1.74687], [-55.868995, -1.746766], [-55.868442, -1.746307], [-55.867985, -1.74591], [-55.867922, -1.745847], [-55.867506, -1.745353], [-55.867437, -1.74529], [-55.866707, -1.744693], [-55.866028, -1.743981], [-55.865023, -1.743056], [-55.864875, -1.742941], [-55.864607, -1.742849], [-55.864424, -1.742775], [-55.864064, -1.742551], [-55.864236, -1.742344], [-55.864607, -1.742103], [-55.864875, -1.74177], [-55.864978, -1.741592], [-55.865006, -1.741465], [-55.865189, -1.740087], [-55.86536, -1.739375], [-55.869817, -1.742522]]]}}, {"type": "Feature", "properties": {"nome": "São Lázaro", "tipo": "Bairro", "cor": "#b3dafc", "rotulo_lat": -1.749125, "rotulo_lon": -55.856437}, "geometry": {"type": "Polygon", "coordinates": [[[-55.858654, -1.74224], [-55.859744, -1.743785], [-55.859567, -1.744044], [-55.859613, -1.744119], [-55.860344, -1.744744], [-55.860395, -1.744825], [-55.861028, -1.745491], [-55.861103, -1.745548], [-55.862193, -1.746554], [-55.862917, -1.747111], [-55.86185, -1.748144], [-55.860846, -1.749178], [-55.858791, -1.751183], [-55.857302, -1.752618], [-55.856349, -1.753595], [-55.855698, -1.752906], [-55.854671, -1.75178], [-55.854517, -1.751625], [-55.853244, -1.750241], [-55.852268, -1.749195], [-55.852223, -1.749086], [-55.851857, -1.748713], [-55.851646, -1.748546], [-55.851406, -1.748294], [-55.850362, -1.747139], [-55.851098, -1.746468], [-55.852137, -1.74761], [-55.853763, -1.746071], [-55.853735, -1.745922], [-55.854054, -1.745675], [-55.854796, -1.746468], [-55.855333, -1.745956], [-55.855418, -1.746037], [-55.855493, -1.746089], [-55.855664, -1.745916], [-55.855938, -1.7456], [-55.856303, -1.745836], [-55.85644, -1.745882], [-55.856668, -1.74591], [-55.856936, -1.745997], [-55.857085, -1.746054], [-55.857273, -1.7461], [-55.857461, -1.746157], [-55.857627, -1.746255], [-55.857707, -1.746192], [-55.857855, -1.7461], [-55.857958, -1.74606], [-55.857964, -1.745537], [-55.858323, -1.744601], [-55.858329, -1.744509], [-55.858489, -1.74382], [-55.858563, -1.743234], [-55.858654, -1.74224]]]}}, {"type": "Feature", "properties": {"nome": "Nova Vitória", "tipo": "Ocupação", "cor": "#c8bbfc", "rotulo_lat": -1.743573, "rotulo_lon": -55.862165}, "geometry": {"type": "Polygon", "coordinates": [[[-55.864966, -1.743125], [-55.865965, -1.74405], [-55.865035, -1.745032], [-55.864099, -1.745899], [-55.862974, -1.747048], [-55.862341, -1.746536], [-55.862278, -1.746468], [-55.861936, -1.746157], [-55.861097, -1.745416], [-55.860441, -1.744773], [-55.860406, -1.744681], [-55.859664, -1.744067], [-55.859813, -1.743854], [-55.859744, -1.743785], [-55.858654, -1.74224], [-55.858637, -1.741436], [-55.861348, -1.741678], [-55.861616, -1.740885], [-55.864527, -1.741948], [-55.864179, -1.742275], [-55.86395, -1.742545], [-55.864002, -1.74262], [-55.864384, -1.742855], [-55.864572, -1.742936], [-55.864829, -1.743022], [-55.864966, -1.743125]]]}}, {"type": "Feature", "properties": {"nome": "Nossa Senhora das Graças", "tipo": "Bairro", "cor": "#a3ff73", "rotulo_lat": -1.753982, "rotulo_lon": -55.860004}, "geometry": {"type": "Polygon", "coordinates": [[[-55.863317, -1.760969], [-55.86229, -1.759872], [-55.859025, -1.756438], [-55.858472, -1.755892], [-55.858232, -1.755645], [-55.857907, -1.755272], [-55.856389, -1.753635], [-55.857364, -1.752681], [-55.858854, -1.751251], [-55.859847, -1.750275], [-55.860423, -1.750907], [-55.861416, -1.751952], [-55.861936, -1.752486], [-55.86294, -1.753572], [-55.863465, -1.754157], [-55.864635, -1.755381], [-55.865765, -1.756616], [-55.866815, -1.757695], [-55.865782, -1.7587], [-55.86427, -1.760079], [-55.863317, -1.760969]]]}}, {"type": "Feature", "properties": {"nome": "Residencial Tia Ana", "tipo": "Novo bairro", "cor": "#f4fcd4", "rotulo_lat": -1.756447, "rotulo_lon": -55.850921}, "geometry": {"type": "Polygon", "coordinates": [[[-55.850573, -1.752021], [-55.85321, -1.756535], [-55.849392, -1.762014], [-55.847218, -1.759711], [-55.847914, -1.758849], [-55.850573, -1.752021]]]}}, {"type": "Feature", "properties": {"nome": "Área Pastoral", "tipo": "Bairro", "cor": "#f3cafc", "rotulo_lat": -1.755227, "rotulo_lon": -55.854873}, "geometry": {"type": "Polygon", "coordinates": [[[-55.857844, -1.75534], [-55.855105, -1.758149], [-55.854003, -1.757173], [-55.85394, -1.757109], [-55.853832, -1.757219], [-55.853136, -1.756633], [-55.85321, -1.756535], [-55.852234, -1.75487], [-55.852245, -1.754749], [-55.851869, -1.754112], [-55.851817, -1.754043], [-55.85087, -1.752406], [-55.850933, -1.752434], [-55.851001, -1.752429], [-55.85103, -1.752417], [-55.851783, -1.751728], [-55.850134, -1.749942], [-55.849089, -1.748834], [-55.850568, -1.747518], [-55.8516, -1.748633], [-55.851737, -1.748811], [-55.852097, -1.74919], [-55.8522, -1.749253], [-55.855635, -1.752969], [-55.856862, -1.754278], [-55.857844, -1.75534]]]}}, {"type": "Feature", "properties": {"nome": "São José Operário", "tipo": "Bairro", "cor": "#d1ff73", "rotulo_lat": -1.780024, "rotulo_lon": -55.857447}, "geometry": {"type": "Polygon", "coordinates": [[[-55.85769, -1.773839], [-55.857119, -1.774482], [-55.857165, -1.774563], [-55.857644, -1.775246], [-55.857792, -1.775487], [-55.857907, -1.775705], [-55.857998, -1.775774], [-55.858409, -1.775642], [-55.859145, -1.776326], [-55.860429, -1.77748], [-55.86209, -1.779014], [-55.862935, -1.779818], [-55.863294, -1.780139], [-55.863037, -1.780415], [-55.862837, -1.78057], [-55.862689, -1.780627], [-55.862615, -1.780731], [-55.862564, -1.781029], [-55.862278, -1.781219], [-55.861913, -1.781546], [-55.861759, -1.781667], [-55.861553, -1.781764], [-55.861371, -1.781862], [-55.861074, -1.782109], [-55.860903, -1.782207], [-55.860492, -1.782511], [-55.860218, -1.782758], [-55.859887, -1.78312], [-55.859784, -1.783281], [-55.859733, -1.783493], [-55.859619, -1.783677], [-55.859459, -1.783884], [-55.859333, -1.784136], [-55.859191, -1.784349], [-55.859071, -1.784481], [-55.858922, -1.784619], [-55.858683, -1.784975], [-55.858409, -1.785538], [-55.858283, -1.785756], [-55.858106, -1.786169], [-55.857964, -1.786772], [-55.85777, -1.787117], [-55.857456, -1.786761], [-55.857079, -1.785991], [-55.856332, -1.785084], [-55.855287, -1.78366], [-55.854654, -1.78281], [-55.854579, -1.782764], [-55.854066, -1.781954], [-55.853963, -1.78192], [-55.853187, -1.780725], [-55.853181, -1.780599], [-55.852576, -1.779565], [-55.851315, -1.777819], [-55.851532, -1.777641], [-55.852685, -1.776613], [-55.853444, -1.775924], [-55.853957, -1.775482], [-55.854568, -1.774924], [-55.855059, -1.774505], [-55.855293, -1.774379], [-55.855818, -1.774189], [-55.856434, -1.773988], [-55.856771, -1.773931], [-55.857336, -1.773902], [-55.85757, -1.773873], [-55.85769, -1.773839]]]}}, {"type": "Feature", "properties": {"nome": "Novo Horizonte", "tipo": "Ocupação", "cor": "#ff73df", "rotulo_lat": -1.753572, "rotulo_lon": -55.873356}, "geometry": {"type": "Polygon", "coordinates": [[[-55.873407, -1.757379], [-55.871951, -1.756501], [-55.87113, -1.75561], [-55.86996, -1.754416], [-55.869138, -1.75348], [-55.870165, -1.752486], [-55.871238, -1.751429], [-55.872054, -1.750499], [-55.87303, -1.749506], [-55.874046, -1.748489], [-55.874588, -1.747915], [-55.875005, -1.747518], [-55.875672, -1.746818], [-55.876329, -1.747266], [-55.875935, -1.747725], [-55.876003, -1.747783], [-55.876859, -1.748167], [-55.877693, -1.748644], [-55.879057, -1.749557], [-55.878708, -1.750361], [-55.878748, -1.750516], [-55.878714, -1.750625], [-55.878697, -1.750786], [-55.878537, -1.750924], [-55.878149, -1.75163], [-55.877915, -1.751849], [-55.877584, -1.75248], [-55.877384, -1.752699], [-55.877053, -1.753342], [-55.876648, -1.754071], [-55.876454, -1.754341], [-55.87646, -1.754548], [-55.8761, -1.755197], [-55.876106, -1.755059], [-55.876032, -1.75499], [-55.875918, -1.755174], [-55.875712, -1.75553], [-55.87541, -1.756121], [-55.875381, -1.756397], [-55.875353, -1.756363], [-55.87521, -1.756518], [-55.875261, -1.756564], [-55.875153, -1.756725], [-55.875176, -1.756805], [-55.875136, -1.756805], [-55.875147, -1.756845], [-55.87509, -1.756857], [-55.875039, -1.756931], [-55.874965, -1.757006], [-55.874908, -1.757104], [-55.874919, -1.757242], [-55.874856, -1.757345], [-55.874765, -1.757425], [-55.874571, -1.757465], [-55.874166, -1.757408], [-55.874092, -1.757443], [-55.874171, -1.757477], [-55.874194, -1.757517], [-55.874114, -1.757575], [-55.874012, -1.757735], [-55.873886, -1.757712], [-55.873424, -1.757483], [-55.873447, -1.757443], [-55.873407, -1.757379]]]}}]}